LEMUR-1                 
1 40044U 14033AL  26192.88323400  .00000888  00000+0  10759-3 0  9999
2 40044  97.7903 342.1444 0048047 358.8650   1.2448 14.85331099649134
LEMUR-2-GREENBERG       
1 42837U 17042N   26190.49536315  .00011532  00000+0  37497-3 0  9996
2 42837  97.3831  11.0293 0007135 283.6729  76.3718 15.32031511491802
LEMUR-2-ANDIS           
1 42838U 17042P   26193.46919441  .00012815  00000+0  36920-3 0  9997
2 42838  97.3674  14.2674 0007132 269.8003  90.2423 15.35849981492332
LEMUR-2-MONSON          
1 42839U 17042Q   26191.46928106  .00009600  00000+0  34677-3 0  9999
2 42839  97.4089  11.9359 0005156 266.7916  93.2733 15.28674858491721
LEMUR-2-FURIAUS         
1 42840U 17042R   26193.44556340  .00010642  00000+0  35675-3 0  9995
2 42840  97.3775  11.8672 0006239 340.6601  19.4403 15.31072029492076
LEMUR-2-PETERG          
1 42841U 17042S   26194.18557678  .00012612  00000+0  37379-3 0  9995
2 42841  97.3989  19.2788 0003177 228.6498 131.4472 15.34981340492429
LEMUR-2-DEMBITZ         
1 42842U 17042T   26193.92276444  .00012588  00000+0  42161-3 0  9993
2 42842  97.3822  15.3838 0005054 284.9357  75.1324 15.31066311492287
LEMUR-2-ZACHARY         
1 42845U 17042W   26193.47424905  .00031926  00000+0  52090-3 0  9992
2 42845  97.3575  25.6887 0002460 261.6834  98.4140 15.52533794493128
LEMUR-2-AMANDA-SVANTE   
1 48269U 21034B   26193.77964350  .00025852  00000+0  74134-3 0  9994
2 48269  97.5758 272.7671 0004530 149.3541 210.7967 15.35862163284986
LEMUR-2-SPECIAL-K       
1 48273U 21034F   26193.79103830  .00224827  00000+0  15540-2 0  9997
2 48273  97.5640 282.6731 0006210 216.3246 143.7597 15.73857408285705
LEMUR-2-EMBRIONOVIS     
1 56970U 23084AQ  26193.83808457  .00009780  00000+0  26205-3 0  9999
2 56970  97.6313 339.0377 0008097 215.5388 144.5318 15.38191732171629
LEMUR-2-DEVERILL-M-T    
1 57391U 23100F   26194.02321249  .00019765  00000+0  48096-3 0  9993
2 57391  99.4456 240.2682 0004659 306.5620  53.5190 15.41024565165226
LEMUR-2-BASS            
1 58259U 23174D   26193.94739668  .00013088  00000+0  28921-3 0  9993
2 58259  97.3851 279.0335 0007768  85.0548 275.1587 15.43947109149339
LEMUR-2-JK0903EM1407    
1 58336U 23174CJ  26194.05709345  .00020824  00000+0  33514-3 0  9991
2 58336  97.3925 285.2802 0003816  41.2972 318.8569 15.52994867149743
LEMUR-2-MJR092620       
1 58340U 23174CN  26194.12449728  .00012570  00000+0  26100-3 0  9992
2 58340  97.3982 284.6474 0005499  37.0791 323.0837 15.45813273149659
LEMUR-2-NIMBUS2000      
1 58899U 24022A   26194.06084693  .00017155  00000+0  41634-3 0  9996
2 58899  97.4086  44.4028 0008970  35.6385 324.5459 15.41059887136258
LEMUR-2-VALHALLA        
1 58900U 24022B   26194.06484730  .00012343  00000+0  30639-3 0  9992
2 58900  97.4080  44.3791 0009428  31.1662 329.0142 15.40448362136257
LEMUR-2-CAEL            
1 58903U 24022E   26194.05233529  .00013410  00000+0  31819-3 0  9999
2 58903  97.4066  45.3488 0007347  16.8649 343.2841 15.41811617136321
LEMUR-2-JOHNNYTRUONG    
1 59146U 24043BA  26193.91237259  .00035445  00000+0  39976-3 0  9994
2 59146  97.5386 347.2493 0004168 100.0253 260.1475 15.62437874132050
LEMUR-2-TOMATOKECHUP    
1 60471U 24149D   26193.77009299  .00007744  00000+0  21932-3 0  9993
2 60471  97.3802 275.8895 0003218 127.0790 233.0748 15.36552510106099
LEMUR-2-STELLA          
1 60533U 24149BT  26193.75801112  .00007469  00000+0  43460-3 0  9998
2 60533  97.6742 276.3329 0001212 111.1523 248.9837 15.12343479104360
LEMUR-2-MARHISYAM       
1 60536U 24149BW  26194.01272817  .00006657  00000+0  39418-3 0  9991
2 60536  97.6885 277.0636 0002716  73.2664 286.8864 15.11754239104386
LEMUR-2-AHMED-ASRAR     
1 60576U 24149DN  26193.75694365  .00007696  00000+0  43625-3 0  9990
2 60576  97.7013 278.9991 0000936 206.0418 154.0766 15.13277524104435
LEMUR-2-LLOYD           
1 60577U 24149DP  26194.16028014  .00006603  00000+0  41326-3 0  9992
2 60577  97.6750 275.3105 0004844  76.5693 283.6075 15.09730336104317
LEMUR-2-SQUIRRELCOMM    
1 60578U 24149DQ  26193.81389222  .00003375  00000+0  22693-3 0  9994
2 60578  97.6717 274.6477 0004209 339.2490  20.8566 15.07434731104262
LEMUR-2-SIERRINI        
1 60579U 24149DR  26194.17363867  .00007136  00000+0  42518-3 0  9999
2 60579  97.6847 276.8886 0006410  95.7209 264.4752 15.11486633104382
LEMUR-2-WILSON          
1 62694U 25009CP  26193.92660306  .00000810  00000+0  78714-4 0  9995
2 62694  97.7022 271.9401 0002196 337.3895  22.7229 14.95273147 81204
LEMUR-2-STAR-FOX        
1 62696U 25009CR  26193.79646390  .00004021  00000+0  30473-3 0  9996
2 62696  97.6917 275.2217 0002504  52.5903 307.5549 15.02825375 81405
LEMUR-2-ARIANNA         
1 62699U 25009CU  26193.79493253  .00004195  00000+0  31771-3 0  9991
2 62699  97.6856 274.9744 0002828  57.8921 302.2579 15.02826231 81405
LEMUR-2-ALISIA          
1 62706U 25009DB  26194.16723685  .00004726  00000+0  35425-3 0  9997
2 62706  97.6972 276.1644 0004039 134.8239 225.3315 15.03157072104062
